ONEWEB-0171             
1 48070U 21025AE  25274.31915807 -.00000243  00000+0 -69916-3 0  9997
2 48070  87.9040  11.6817 0001774 104.6649 255.4677 13.13470554219632
ONEWEB-0172             
1 48071U 21025AF  25274.52738839 -.00000249  00000+0 -71780-3 0  9997
2 48071  87.9055  11.6106 0001842 106.3151 253.8181 13.13470012220557
ONEWEB-0174             
1 48072U 21025AG  25274.50876331  .00000191  00000+0  48677-3 0  9999
2 48072  87.9050  11.6253 0001951  99.0951 261.0399 13.13468874219871
ONEWEB-0175             
1 48073U 21025AH  25274.53922229 -.00000376  00000+0 -10643-2 0  9999
2 48073  87.9052  11.5844 0001662 110.8960 249.2347 13.13469497219536
ONEWEB-0177             
1 48074U 21025AJ  25274.01784244  .00000119  00000+0  29086-3 0  9991
2 48074  87.9055  11.7052 0001957 101.5782 258.5567 13.13469885219650
ONEWEB-0178             
1 48075U 21025AK  25274.26513288  .00000427  00000+0  11344-2 0  9996
2 48075  87.9055  11.7023 0001878 109.9461 250.1871 13.13469612219730
ONEWEB-0108             
1 48076U 21025AL  25274.52906955 -.00000305  00000+0 -87000-3 0  9993
2 48076  87.9052  11.5956 0001765  93.7009 266.4322 13.13468091219690
ONEWEB-0169             
1 48077U 21025AM  25274.25653301  .00000313  00000+0  82219-3 0  9992
2 48077  87.9053  11.6728 0001758  92.8929 267.2401 13.13469469218318
